name,lat,lon,number,address,image

다성일식,37.5569016,126.9329799,02-338-8951,신촌동 신촌로11길 6,image/1.jpeg

봉산집,37.5344248,126.9750082,02-793-5022,한강대로62나길 24,image/2.jpeg

창고43,37.5189582,126.9307458,02-786-9912,영등포구 여의도동 44-37,image/3.jpg

돕감자탕,37.5414873,127.0692836,02-499-2838,아차산로31길 9,image/4.jpeg

대보명가,37.6456867,127.0071573,02-907-6998,수유동 563-14,image/5.jpeg

해뜨는집,37.5900691,127.0084044,02-764-6354,동소문동1가 62,image/6.jpeg

아이 해브어 드림,37.4986175,127.0278876,02-3453-7697,테헤란로5길 7,image/7.jpeg

아현동 간장게장,37.5546000,126.9561000,02-312-7530,굴레방로 13,image/8.jpeg

왕소금구이,37.5204088,127.0361107,02-545-6844,논현동 98-12번지,image/9.jpeg

라틀리에 모니크,37.5261816,127.0448766,02-549-9210,백제고분로39길 6-13,image/10.jpeg

줄리에뜨,37.4947204,127.0009384,02-535-4002,서초구 반포동,image/10.jpeg

충주집,37.5862178,127.0345490,02-923-1068,제기동 138-2,image/11.jpeg

영화루,37.5801384,126.9690401,02-738-1218,종로구 누하동 25-1,image/12.jpg

일품헌,37.4845029,127.0391935,02-574-7117,서초구 양재동,image/13.jpeg

오가와,37.5720260,126.9743351,02-735-1001,당주동 새문안로5길 19,image/14.jpeg

까사디노아,37.5620845,126.9235561,02-3142-1108,마포구 연남동 257-8,image/15.jpg

충무로 주꾸미 불고기,37.5617693,126.9921966,02-2279-0803,중구 필동1가 3-20,image/16.jpeg

파더스 스테이크,36.3518553,127.3800538,042-472-0692,서구 둔산로 32-11,image/farther'sstake.png

로보쿡,36.3519236,127.347223,042-471-5009,서구 둔산로 15,image/robocook.png

성심당,36.3277226,127.4250629,1588-8069,대종로480번길 15,image/sungsimdang.png

하레하레,36.3514355,127.3927414,042-483-1595,서구 둔산로 155,image/harehare.png

갓포호산,36.3585466,127.3458938,042-825-0653,유성구 문화원로 112,image/godpohosan.png

맛좋은집,36.6324257,127.4492698,,흥덕구 내수동로 38-4,image/matjoeunjip.jpg

햇살 왕만두,36.6338402,127.4539751,043-264-7050,사직대로82번길 14,image/hatwang.png

타스코,36.6339082,127.4211443,043-285-5040,산남로62번길 35,image/tasco.png

유니드쉬림프,36.6378208,127.4866239,043-223-3626,상당구 중앙로 9,image/unisshrimp.png

두끼,36.636737,127.486548,043-222-2771,상당구 사직대로 372,image/ddoki.png

블랙업커피,35.1560624,129.0578127,051-806-4952,부전동 168-152,image/blackup.png

원조밀면,35.100723,129.0253892,051-244-2555,중구 부평동1가 29-97,image/milmyun.png

밀양순대돼지국밥,35.1576614,129.0750736,051-731-7005,해운대구 우동 543-1,image/kkokbab.png

아뜰리에마카롱,35.1556976,129.0621005,051-818-2908,전포동 680-18,image/makarong.png

파머스버거,35.1017967,129.0289883,051-244-5706,중구 대청동 2가 35-1,image/farmer's.png

송학한정식,35.1558753,126.84780840000008, 062-385-3333,서구 치평동 1185-3,image/songhak.jpeg

마한지,71-4,35.1460354,126.91876520000005,062-234-9260,동구 광산동,image/mahanji.jpg

영미오리탕,35.1613794,126.90554050000003,062-527-0249,중앙동 경양로 126,image/youngmi.jpg

달맞이흑두부,35.2009387,126.84347809999997,062-972-8465,광산구 신창동 607-22,image/tofu.jpg

나주곰탕하얀집,35.032244,126.71704090000003,061-333-4292,중앙동 48-17,image/najugomtang.jpg

남평할매집, 35.0315024,126.71680590000005,061-334-4682,금계동 19,image/nampyunghalmae.JPG

노안곰탕,35.0314297,126.71651870000005,061-333-2053,금성관길 1-3,image/noan.jpeg

이바돔감자탕창원용지호수점,35.2306342,128.68071599999996,055-261-1301,창원시 용호동 73-1,image/nampyunghalmae.JPG

한촌설렁탕,35.2242149,128.68441140000004,055-282-3004,마디미로10번길 12,image/hanchon.jpg

세븐스프링스,35.2402618,128.65320710000003, 055-600-5060,두대동 333 333,image/sevenspring.jpg

판문점불고기,35.26028489999999,128.61649120000004,055-277-3242,의창구 팔용동 188-4,image/bulgogi.jpg

본전돼지국밥,35.1166288,129.0413545,051-441-2946,중앙대로214번길 3-8,image/bonjeon.jpg

신발원,35.114728,129.03864699999997,051-467-0177,대영로243번길 62,image/sinbal.jpg

부산족발,35.0996168,129.02708259999997,051-245-5359,중구로21번길 8,image/jok.jpg

초량밀면,35.1172108,129.04060630000004,051-462-1575,중앙대로 225,image/choryang.jpg

뚱보집,35.1008895,129.03613340000004,051-246-7466,중앙대로41번길 1-18,image/ddong.jpg

충주한우프라자,36.9687085,127.94680519999997,043-843-5665,금봉대로 382,image/chungju-5.jpg

삼정면옥,36.9712128,127.93380330000002, 043-847-4882,충주시 성서동 312,image/chungju-2.jpg

청솔식당,36.8460425,127.99094339999999,043-846-6373,온천리 235-78,image/chungju-3.jpeg

숲속장수촌,36.9897714,127.9235003,043-843-2525,금릉동 121-6,image/chungju-4.jpg

백오동식당,36.9788255,127.93831769999997,043-842-6969,교현동 393-7,image/chungju-1.jpg

우진해장국,33.5114884,126.52008639999997,064-757-3393,삼도2동 서사로 11,image/jeju-1.jpeg

용이식당,33.2512764,126.56034580000005,064-732-7892,천지동 298-8,image/jeju-2.jpeg

상록식당,33.268883,126.58769719999998,064-762-4974,토평동 1310-20,image/jeju-3.jpeg

안거리밖거리,33.244278,126.56415059999995,064-763-2552,송산동 584-3,image/jeju-4.jpeg

삼보식당,33.2476846,126.55918900000006,064-762-3620,천지동 319-8,image/jeju-5.jpeg